NORAD_CAT_ID,OBJECT_NAME,OBJECT_TYPE,EPOCH,MEAN_MOTION,ECCENTRICITY,INCLINATION,RA_OF_ASC_NODE,ARG_OF_PERICENTER,MEAN_ANOMALY,BSTAR,MEAN_MOTION_DOT,MEAN_MOTION_DDOT,TLE_LINE0,TLE_LINE1,TLE_LINE2,SEMIMAJOR_AXIS,PERIOD,APOGEE,PERIGEE,DECAYED
51992.0,STARLINK-3643,PAYLOAD,2022-04-08 22:00:00,15.73233374,0.0001328,53.2168,349.5176,127.1617,311.0837,-0.0004478,-0.00063086,0.0,0 STARLINK-3643,1 51992U 22025AN  22098.91667824 -.00063086  00000-0 -44780-3 0  9992,2 51992  53.2168 349.5176 0001328 127.1617 311.0837 15.73233374  3674,6727.8,91.531,350.55800000000005,348.772,0.0
51992.0,STARLINK-3643,PAYLOAD,2022-04-09 14:00:01,15.732106,0.0001414,53.2165,346.2171,131.2203,124.882,-0.00054686,-0.00076707,0.0,0 STARLINK-3643,1 51992U 22025AN  22099.58334491 -.00076707  00000-0 -54686-3 0  9997,2 51992  53.2165 346.2171 0001414 131.2203 124.8820 15.73210600  3717,6727.865,91.533,350.681,348.779,0.0
51992.0,STARLINK-3643,PAYLOAD,2022-04-09 20:00:01,15.73166044,0.0001524,53.2166,344.9812,123.5554,109.2491,-0.00011938,-0.00017316,0.0,0 STARLINK-3643,1 51992U 22025AN  22099.83334491 -.00017316  00000-0 -11938-3 0  9999,2 51992  53.2166 344.9812 0001524 123.5554 109.2491 15.73166044  6211,6727.9919999999975,91.535,350.88199999999995,348.832,0.0
51992.0,STARLINK-3643,PAYLOAD,2022-04-09 22:00:00,15.73151571,0.0001528,53.2164,344.5694,120.8468,224.1809,0.00010823,0.00014564,0.0,0 STARLINK-3643,1 51992U 22025AN  22099.91667824  .00014564  00000-0  10823-3 0  9999,2 51992  53.2164 344.5694 0001528 120.8468 224.1809 15.73151571  3701,6728.033,91.536,350.926,348.87,0.0
51992.0,STARLINK-3643,PAYLOAD,2022-04-10 04:00:00,15.73164549,0.0001377,53.216,343.333,118.652,203.0591,0.00079279,0.00111966,0.0,0 STARLINK-3643,1 51992U 22025AN  22100.16667824  .00111966  00000-0  79279-3 0  9993,2 51992  53.2160 343.3330 0001377 118.6520 203.0591 15.73164549  6264,6727.996,91.535,350.788,348.935,0.0
51992.0,STARLINK-3643,PAYLOAD,2022-04-10 14:00:01,15.73259709,0.0001598,53.2161,341.2687,130.2228,32.6634,8.362799999999999e-05,0.00011161,0.0,0 STARLINK-3643,1 51992U 22025AN  22100.58334491  .00011161  00000-0  83628-4 0  9990,2 51992  53.2161 341.2687 0001598 130.2228  32.6634 15.73259709  3700,6727.725,91.53,350.665,348.515,0.0
51992.0,STARLINK-3643,PAYLOAD,2022-04-10 20:00:01,15.73288046,0.0001547,53.2165,340.0328,125.2335,14.3927,-0.0006456,-0.00090599,0.0,0 STARLINK-3643,1 51992U 22025AN  22100.83334491 -.00090599  00000-0 -64560-3 0  9995,2 51992  53.2165 340.0328 0001547 125.2335  14.3927 15.73288046  6363,6727.644,91.528,350.55,348.468,0.0
51992.0,STARLINK-3643,PAYLOAD,2022-04-10 22:00:00,15.73271471,0.0001519,53.2164,339.621,122.5192,129.363,-0.0006077,-0.00085309,0.0,0 STARLINK-3643,1 51992U 22025AN  22100.91667824 -.00085309  00000-0 -60770-3 0  9995,2 51992  53.2164 339.6210 0001519 122.5192 129.3630 15.73271471  3714,6727.691,91.529,350.57800000000015,348.534,0.0
51992.0,STARLINK-3643,PAYLOAD,2022-04-11 14:00:01,15.73196923,0.0001491,53.2163,336.3203,130.9654,298.7609,-0.00021297,-0.00030398,0.0,0 STARLINK-3643,1 51992U 22025AN  22101.58334491 -.00030398  00000-0 -21297-3 0  9999,2 51992  53.2163 336.3203 0001491 130.9654 298.7609 15.73196923  3708,6727.904,91.533,350.772,348.766,0.0
51992.0,STARLINK-3643,PAYLOAD,2022-04-11 22:00:00,15.73152922,0.0001058,53.2159,334.6728,134.5962,24.0658,-0.00028565,-0.00040434,0.0,0 STARLINK-3643,1 51992U 22025AN  22101.91667824 -.00040434  00000-0 -28565-3 0  9992,2 51992  53.2159 334.6728 0001058 134.5962  24.0658 15.73152922  3689,6728.029,91.536,350.606,349.18300000000005,0.0
51992.0,STARLINK-3643,PAYLOAD,2022-04-12 04:00:00,15.7311281,9.28e-05,53.2155,333.4362,138.3833,356.9138,0.00049665,0.00069398,0.0,0 STARLINK-3643,1 51992U 22025AN  22102.16667824  .00069398  00000-0  49665-3 0  9992,2 51992  53.2155 333.4362 0000928 138.3833 356.9138 15.73112810  6573,6728.144,91.538,350.6330000000001,349.384,0.0
51992.0,STARLINK-3643,PAYLOAD,2022-04-12 14:00:01,15.73145763,0.0001152,53.2156,331.3722,150.347,186.0164,0.00068437,0.00096309,0.0,0 STARLINK-3643,1 51992U 22025AN  22102.58334491  .00096309  00000-0  68437-3 0  9999,2 51992  53.2156 331.3722 0001152 150.3470 186.0164 15.73145763  3708,6728.05,91.536,350.69,349.14,0.0
51992.0,STARLINK-3643,PAYLOAD,2022-04-12 20:00:01,15.73198504,9.940000000000004e-05,53.2158,330.1368,146.5439,166.4749,0.00012253,0.00016609,0.0,0 STARLINK-3643,1 51992U 22025AN  22102.83334491  .00016609  00000-0  12253-3 0  9997,2 51992  53.2158 330.1368 0000994 146.5439 166.4749 15.73198504  6680,6727.899,91.533,350.43300000000005,349.096,0.0
51992.0,STARLINK-3643,PAYLOAD,2022-04-12 22:00:00,15.73196749,9.27e-05,53.2158,329.725,143.9795,281.2714,0.00023641,0.00032683,0.0,0 STARLINK-3643,1 51992U 22025AN  22102.91667824  .00032683  00000-0  23641-3 0  9998,2 51992  53.2158 329.7250 0000927 143.9795 281.2714 15.73196749  3691,6727.904,91.533,350.39300000000014,349.146,0.0
51992.0,STARLINK-3643,PAYLOAD,2022-04-13 04:00:00,15.73226647,7.730000000000001e-05,53.2155,328.4879,145.2028,256.7554,0.00042948,0.00060156,0.0,0 STARLINK-3643,1 51992U 22025AN  22103.16667824  .00060156  00000-0  42948-3 0  9993,2 51992  53.2155 328.4879 0000773 145.2028 256.7554 15.73226647  6732,6727.819,91.532,350.204,349.164,0.0
51992.0,STARLINK-3643,PAYLOAD,2022-04-13 12:00:00,15.73204967,9.38e-05,53.2173,326.8189,141.65,349.2675,-8.7132e-06,-1.842e-05,0.0,0 STARLINK-3643,1 51992U 22025AN  22103.50001157 -.00001842  00000-0 -87132-5 0  9997,2 51992  53.2173 326.8189 0000938 141.6500 349.2675 15.73204967  6784,6727.880999999999,91.533,350.37699999999984,349.115,0.0
51992.0,STARLINK-3643,PAYLOAD,2022-04-13 14:00:03,15.73205648,0.0001034,53.2176,326.4049,139.227,104.0557,-1.2245e-05,-2.338e-05,0.0,0 STARLINK-3643,1 51992U 22025AN  22103.58336806 -.00002338  00000-0 -12245-4 0  9990,2 51992  53.2176 326.4049 0001034 139.2270 104.0557 15.73205648  3727,6727.879,91.533,350.44,349.048,0.0
51992.0,STARLINK-3643,PAYLOAD,2022-04-13 20:00:01,15.73266857,0.0001076,53.2153,325.1882,128.8727,91.1927,-0.00042558,-0.00060091,0.0,0 STARLINK-3643,1 51992U 22025AN  22103.83335648 -.00060091  00000-0 -42558-3 0  9990,2 51992  53.2153 325.1882 0001076 128.8727  91.1927 15.73266857  6831,6727.705,91.529,350.293,348.846,0.0
51992.0,STARLINK-3643,PAYLOAD,2022-04-13 22:00:00,15.73246387,0.0001124,53.2152,324.7763,124.0511,208.2027,-0.00026266,-0.00037391,0.0,0 STARLINK-3643,1 51992U 22025AN  22103.91667824 -.00037391  00000-0 -26266-3 0  9998,2 51992  53.2152 324.7763 0001124 124.0511 208.2027 15.73246387  3707,6727.763000000001,91.53,350.384,348.872,0.0
51992.0,STARLINK-3643,PAYLOAD,2022-04-14 14:00:01,15.73200935,0.0001344,53.2148,321.4751,134.1955,15.9568,-0.00026015,-0.00036971,0.0,0 STARLINK-3643,1 51992U 22025AN  22104.58334491 -.00036971  00000-0 -26015-3 0  9998,2 51992  53.2148 321.4751 0001344 134.1955  15.9568 15.73200935  3691,6727.893,91.533,350.662,348.853,0.0
51992.0,STARLINK-3643,PAYLOAD,2022-04-14 20:00:01,15.73203719,0.0001118,53.2147,320.2396,127.8559,359.0083,-0.00042063,-0.00059246,0.0,0 STARLINK-3643,1 51992U 22025AN  22104.83334491 -.00059246  00000-0 -42063-3 0  9997,2 51992  53.2147 320.2396 0001118 127.8559 359.0083 15.73203719  6993,6727.885,91.533,350.50199999999984,348.997,0.0
51992.0,STARLINK-3643,PAYLOAD,2022-04-14 22:00:00,15.73166049,0.0001119,53.2148,319.8276,122.2153,116.8874,8.3801e-05,0.0001114,0.0,0 STARLINK-3643,1 51992U 22025AN  22104.91667824  .00011140  00000-0  83801-4 0  9990,2 51992  53.2148 319.8276 0001119 122.2153 116.8874 15.73166049  3702,6727.9919999999975,91.535,350.61,349.10400000000016,0.0
51992.0,STARLINK-3643,PAYLOAD,2022-04-15 04:00:00,15.73193597,0.0001042,53.2145,318.5901,124.4276,91.35,0.00037018,0.00051638,0.0,0 STARLINK-3643,1 51992U 22025AN  22105.16667824  .00051638  00000-0  37018-3 0  9992,2 51992  53.2145 318.5901 0001042 124.4276  91.3500 15.73193597  7047,6727.913000000001,91.534,350.47900000000016,349.077,0.0
51992.0,STARLINK-3643,PAYLOAD,2022-04-15 12:00:00,15.73229724,0.0001183,53.2145,316.9386,130.7021,174.0436,0.00083387,0.00118218,0.0,0 STARLINK-3643,1 51992U 22025AN  22105.50001157  .00118218  00000-0  83387-3 0  9999,2 51992  53.2145 316.9386 0001183 130.7021 174.0436 15.73229724  7106,6727.81,91.531,350.471,348.88,0.0
51992.0,STARLINK-3643,PAYLOAD,2022-04-15 14:00:01,15.73280498,0.0001254,53.2147,316.5263,128.1759,288.8058,0.00028179,0.00039249,0.0,0 STARLINK-3643,1 51992U 22025AN  22105.58334491  .00039249  00000-0  28179-3 0  9991,2 51992  53.2147 316.5263 0001254 128.1759 288.8058 15.73280498  3707,6727.666,91.528,350.374,348.68699999999984,0.0
51992.0,STARLINK-3643,PAYLOAD,2022-04-15 20:00:01,15.73312638,0.0001222,53.2143,315.2907,117.8814,275.8623,-0.00090133,-0.00125845,0.0,0 STARLINK-3643,1 51992U 22025AN  22105.83334491 -.00125845  00000-0 -90133-3 0  9998,2 51992  53.2143 315.2907 0001222 117.8814 275.8623 15.73312638  7155,6727.574000000001,91.527,350.261,348.617,0.0
51992.0,STARLINK-3643,PAYLOAD,2022-04-15 22:00:00,15.73273378,0.0001252,53.2142,314.8787,114.3683,31.6422,-0.00055944,-0.00078649,0.0,0 STARLINK-3643,1 51992U 22025AN  22105.91667824 -.00078649  00000-0 -55944-3 0  9996,2 51992  53.2142 314.8787 0001252 114.3683  31.6422 15.73273378  3679,6727.686,91.529,350.39300000000014,348.709,0.0
51992.0,STARLINK-3643,PAYLOAD,2022-04-16 14:00:01,15.73066155,0.0001629999999999,53.214,311.5772,121.2768,202.6079,-0.00014452,-0.00020737,0.0,0 STARLINK-3643,1 51992U 22025AN  22106.58334491 -.00020737  00000-0 -14452-3 0  9995,2 51992  53.2140 311.5772 0001630 121.2768 202.6079 15.73066155  3701,6728.276999999999,91.541,351.23900000000015,349.045,0.0
51992.0,STARLINK-3643,PAYLOAD,2022-04-16 20:00:01,15.7303784,0.0001493,53.2138,310.3419,113.1245,187.3427,0.00080175,0.00112634,0.0,0 STARLINK-3643,1 51992U 22025AN  22106.83334491  .00112634  00000-0  80175-3 0  9994,2 51992  53.2138 310.3419 0001493 113.1245 187.3427 15.73037840  7316,6728.358,91.543,351.227,349.218,0.0
